FLOCK 2P-10             
1 41612U 16040P   17241.29532353  .00002094  00000-0  93374-4 0  9997
2 41612  97.4563 303.6381 0011038 178.5760 181.5509 15.22481776 65790
FLOCK 2P-8              
1 41613U 16040Q   17241.44308045  .00003215  00000-0  14162-3 0  9997
2 41613  97.4555 303.7260 0011252 177.3079 182.8220 15.22502108 65817
FLOCK 2P-12             
1 41614U 16040R   17241.47052122  .00002668  00000-0  11800-3 0  9990
2 41614  97.4566 303.8973 0010986 177.4106 182.7189 15.22518506 65820
FLOCK 2P-7              
1 41615U 16040S   17241.37193894  .00003484  00000-0  15327-3 0  9997
2 41615  97.4553 303.6530 0011117 178.8319 181.2945 15.22490837 65800
FLOCK 2P-5              
1 41616U 16040T   17241.15285141  .00002473  00000-0  10970-3 0  9997
2 41616  97.4566 303.5561 0010961 177.7181 182.4108 15.22485110 65755
FLOCK 2P-1              
1 41617U 16040U   17241.47001839  .00003373  00000-0  14841-3 0  9994
2 41617  97.4569 303.8989 0010769 177.7247 182.4041 15.22514586 65829
FLOCK 2P-3              
1 41618U 16040V   17241.43222262  .00003884  00000-0  17043-3 0  9990
2 41618  97.4565 303.7890 0010846 177.3742 182.7553 15.22503185 65811
BEESAT-4                
1 41619U 16040W   17241.42065293  .00001938  00000-0  90481-4 0  9995
2 41619  97.4560 303.0856 0012532 164.9030 195.2582 15.20973864 53729
3CAT-2                  
1 41732U 16051B   17241.48445131  .00001660  00000-0  69105-4 0  9993
2 41732  97.3719 157.3793 0014759  22.3466  93.6649 15.25067151 57708
FLOCK 2E'-13            
1 41761U 98067KH  17241.56432681  .00012682  00000-0  14792-3 0  9994
2 41761  51.6384  20.8979 0006291 174.9856 185.1202 15.62031556 54373
FLOCK 2E'-14            
1 41762U 98067KJ  17241.60430933  .00013359  00000-0  15404-3 0  9991
2 41762  51.6396  20.4464 0006149 176.0994 184.0049 15.62274270 54380
FLOCK 2E'-16            
1 41763U 98067KK  17241.61665700  .00014679  00000-0  16522-3 0  9993
2 41763  51.6396  19.7752 0005504 186.1868 173.9060 15.62810646 54358
FLOCK 2E'-15            
1 41764U 98067KL  17241.58024721  .00013160  00000-0  15388-3 0  9995
2 41764  51.6393  21.0303 0005771 181.8834 178.2139 15.61929615 54334
FLOCK 2E'-18            
1 41769U 98067KM  17241.56370679  .00012477  00000-0  14599-3 0  9997
2 41769  51.6395  20.9135 0004796 205.0661 155.0101 15.61974408 54337
FLOCK 2E'-17            
1 41776U 98067KN  17241.61681651  .00012213  00000-0  14250-3 0  9998
2 41776  51.6404  20.5423 0005162 206.6547 153.4183 15.62069050 54331
FLOCK 2E'-19            
1 41777U 98067KP  17241.60520248  .00018285  00000-0  18685-3 0  9993
2 41777  51.6380  16.6563 0003989 209.8730 150.2038 15.65096874 54342
FLOCK 2E'-20            
1 41782U 98067KQ  17241.57828297  .00017981  00000-0  19022-3 0  9998
2 41782  51.6392  18.0123 0004041 203.9975 156.0832 15.64229806 54196
CANX-7                  
1 41788U 16059F   17241.49554409  .00006188  00000-0  11514-2 0  9991
2 41788  98.1821 302.8384 0028918 294.4031  65.4166 14.65189906 49323
ALSAT 1N                
1 41789U 16059G   17241.41416126  .00000089  00000-0  26311-4 0  9994
2 41789  98.1608 302.6485 0027220 286.4367  73.3849 14.64067832 49323
RAVAN                   
1 41849U 16067B   17241.21323335  .00000886  00000-0  82021-4 0  9992
2 41849  97.9450 320.4848 0009417  61.9669 298.2504 14.97106931 43434
CELTEE 1                
1 41850U 16067C   17241.20800962 -.00000032  00000-0  25179-5 0  9995
2 41850  97.9448 320.3314 0009867  59.9394 300.2804 14.96594872 43421
OPTICUBE 04             
1 41851U 16067D   17241.21716092  .00000148  00000-0  18376-4 0  9994
2 41851  97.9443 320.3183 0009984  61.6912 298.5315 14.96514009 43427
AEROCUBE 8D             
1 41852U 16067E   17241.21178993  .00000152  00000-0  18882-4 0  9994
2 41852  97.9457 320.2072 0010781  60.7424 299.4873 14.96243558 43410
AEROCUBE 8C             
1 41853U 16067F   17241.35268250  .00000384  00000-0  39430-4 0  9995
2 41853  97.9455 320.3318 0011180  61.8259 298.4090 14.96206566 43435
PROMETHEUS 2-1          
1 41854U 16067G   17241.43576196  .00001053  00000-0  98743-4 0  9992
2 41854  97.9464 320.3841 0011745  61.9551 298.2856 14.96186725 43443
PROMETHEUS 2-3          
1 41855U 16067H   17241.50442274  .00001108  00000-0  10359-3 0  9997
2 41855  97.9466 320.4534 0011943  61.9207 298.3219 14.96180058 43452
LEMUR-2-XIAOQING        
1 41871U 16062C   17241.44701641  .00002445  00000-0  11771-3 0  9993
2 41871  51.6516  98.9518 0004735 118.4395 304.7787 15.22657402 42104
LEMUR-2-SOKOLSKY        
1 41872U 16062D   17241.43294389  .00003464  00000-0  16064-3 0  9991
2 41872  51.6526  98.7728 0005280 139.1331 282.9721 15.22694928 42090
LEMUR-2-ANUBHAVTHAKUR   
1 41873U 16062E   17241.46888014 -.00000246  00000-0  37637-5 0  9996
2 41873  51.6349  99.7493 0006814 143.3681 286.8978 15.21645336 42076
LEMUR-2-WINGO           
1 41874U 16062F   17241.47349839  .00001541  00000-0  80331-4 0  9991
2 41874  51.6269  99.0486 0008332 120.5021 313.3271 15.22262412 42090
STARS-C                 
1 41895U 98067KR  17241.59951266  .00041221  00000-0  40968-3 0  9995
2 41895  51.6376  22.6343 0004072 243.3201 116.7377 15.65309350 39477
TANCREDO-1              
1 41931U 98067KT  17241.56341153  .00107157  00000-0  66104-3 0  9992
2 41931  51.6342  15.5745 0003671 244.7105 115.3515 15.76318769 35134
ITF-2                   
1 41932U 98067KU  17241.61755621  .00019969  00000-0  23795-3 0  9990
2 41932  51.6411  25.7971 0004986 183.7070 176.3888 15.61068505 35009
WASEDA-SAT3             
1 41933U 98067KV  17241.56227477  .00024026  00000-0  27586-3 0  9990
2 41933  51.6391  25.4027 0004821 187.9108 172.1810 15.61909891 35003
AOBA-VELOX 3            
1 41935U 98067KX  17241.58896012  .00022131  00000-0  25782-3 0  9992
2 41935  51.6406  25.5996 0004357 189.1305 170.9610 15.61588767 35105
TUPOD                   
1 41936U 98067KY  17241.61178862  .00521527  12348-3  12251-2 0  9993
2 41936  51.6259   8.2706 0009936 318.9316  41.0943 15.96227264 34714
OSNSAT                  
1 41939U 98067KZ  17241.60884271  .00048746  00000-0  43404-3 0  9994
2 41939  51.6372  20.4339 0004795 202.0797 157.9994 15.67963071 34438
FLOCK 3P-8              
1 41951U 17008D   17241.44901482  .00003195  00000-0  13966-3 0  9999
2 41951  97.4893 302.5499 0006788 301.2376  58.8195 15.22806406 29680
FLOCK 3P-51             
1 41952U 17008E   17241.61663729  .00003281  00000-0  14317-3 0  9995
2 41952  97.4899 302.8012 0007113 322.7755  37.2987 15.22845291 29712
FLOCK 3P-37             
1 41953U 17008F   17241.57504171  .00003348  00000-0  14424-3 0  9999
2 41953  97.4897 302.8491 0006526 329.0949  30.9903 15.23267310 29713
INS-1B                  
1 41954U 17008G   17241.45268514  .00001744  00000-0  79615-4 0  9997
2 41954  97.4872 302.3385 0008162 300.5249  59.5181 15.21932126 29615
FLOCK 3P-19             
1 41955U 17008H   17241.59593692  .00002851  00000-0  12502-3 0  9992
2 41955  97.4889 302.6500 0007609 300.0047  60.0434 15.22786212 29625
FLOCK 3P-24             
1 41956U 17008J   17241.59349441  .00003954  00000-0  17192-3 0  9999
2 41956  97.4887 302.6531 0007500 296.5501  63.4966 15.22838978 29705
FLOCK 3P-18             
1 41957U 17008K   17241.59479436  .00006041  00000-0  26084-3 0  9998
2 41957  97.4887 302.6550 0007618 297.7852  62.2612 15.22857725 29547
FLOCK 3P-22             
1 41958U 17008L   17241.46852888  .00004195  00000-0  18266-3 0  9992
2 41958  97.4889 302.5182 0007396 298.8342  61.2152 15.22754407 29517
FLOCK 3P-21             
1 41959U 17008M   17241.45699478  .00002828  00000-0  12396-3 0  9995
2 41959  97.4895 302.5438 0007230 301.9077  58.1455 15.22805928 29524
FLOCK 3P-28             
1 41960U 17008N   17241.45504423  .00004321  00000-0  18779-3 0  9993
2 41960  97.4892 302.5424 0007043 299.9766  60.0770 15.22806381 29606
FLOCK 3P-26             
1 41961U 17008P   17241.46408988  .00004505  00000-0  19578-3 0  9996
2 41961  97.4892 302.5285 0007231 298.7861  61.2648 15.22785523 29526
FLOCK 3P-17             
1 41962U 17008Q   17241.44455554  .00001807  00000-0  80345-4 0  9999
2 41962  97.4895 302.5554 0007148 302.9073  57.1475 15.22794330 29471
FLOCK 3P-27             
1 41963U 17008R   17241.60316372  .00005075  00000-0  22054-3 0  9995
2 41963  97.4893 302.6520 0007373 298.4965  61.5528 15.22718295 29545
FLOCK 3P-25             
1 41964U 17008S   17241.59050272  .00005380  00000-0  23286-3 0  9995
2 41964  97.4891 302.6633 0006990 299.5480  60.5059 15.22831023 29528
FLOCK 3P-4              
1 41965U 17008T   17241.45268567  .00003781  00000-0  16459-3 0  9996
2 41965  97.4893 302.5475 0006986 301.9702  58.0855 15.22832981 29603
FLOCK 3P-2              
1 41966U 17008U   17241.45350492  .00004555  00000-0  19786-3 0  9992
2 41966  97.4894 302.5503 0006830 299.9105  60.1453 15.22796920 29529
FLOCK 3P-1              
1 41967U 17008V   17241.59632984  .00003021  00000-0  13303-3 0  9993
2 41967  97.4898 302.6695 0006996 300.0051  60.0490 15.22597877 29546
FLOCK 3P-3              
1 41968U 17008W   17241.45580652  .00003139  00000-0  13733-3 0  9990
2 41968  97.4892 302.5422 0006946 300.1880  59.8668 15.22788334 29604
FLOCK 3P-6              
1 41969U 17008X   17241.45145379  .00004035  00000-0  17553-3 0  9994
2 41969  97.4895 302.5536 0006706 299.8872  60.1697 15.22818987 29518
FLOCK 3P-7              
1 41970U 17008Y   17241.56542834  .00002781  00000-0  12170-3 0  9991
2 41970  97.4896 302.7087 0006886 303.4205  56.6372 15.22880000 29543
FLOCK 3P-5              
1 41971U 17008Z   17241.44702588  .00004074  00000-0  17740-3 0  9998
2 41971  97.4896 302.5639 0006789 303.1024  56.9560 15.22779409 29455
FLOCK 3P-12             
1 41972U 17008AA  17241.44508583  .00002700  00000-0  11856-3 0  9994
2 41972  97.4896 302.5655 0006671 303.4752  56.5846 15.22792810 29606
